OBJECT_NAME,OBJECT_ID,EPOCH,MEAN_MOTION,ECCENTRICITY,INCLINATION,RA_OF_ASC_NODE,ARG_OF_PERICENTER,MEAN_ANOMALY,EPHEMERIS_TYPE,CLASSIFICATION_TYPE,NORAD_CAT_ID,ELEMENT_SET_NO,REV_AT_EPOCH,BSTAR,MEAN_MOTION_DOT,MEAN_MOTION_DDOT
ONEWEB-0336,2021-083S,2026-07-01T21:14:03.797088,13.13470200,.00019785,87.8966,317.3016,89.8868,270.2488,0,U,49202,999,23284,-.1419588E-3,-.39E-6,0
ONEWEB-0337,2021-083T,2026-07-01T21:28:29.158752,13.13469688,.00020504,87.8966,317.3052,96.0140,264.1223,0,U,49203,999,23284,.34283701E-3,.138E-5,0
ONEWEB-0338,2021-083U,2026-07-01T04:58:57.318240,13.20770667,.00018548,87.9189,271.6536,108.7892,251.3442,0,U,49204,999,23866,.10391676E-3,.55E-6,0
ONEWEB-0339,2021-083V,2026-07-01T21:40:51.714912,13.13468547,.0001957,87.8966,317.2962,107.8061,252.3282,0,U,49205,999,23282,.92083112E-3,.349E-5,0
ONEWEB-0340,2021-083W,2026-07-01T22:18:24.049728,13.18686005,.00019303,87.9186,332.5228,93.0086,267.1267,0,U,49206,999,23191,-.83131434E-4,-.2E-6,0
ONEWEB-0341,2021-083X,2026-07-01T22:28:06.584448,13.18686691,.00023542,87.9179,332.5239,95.8216,264.3185,0,U,49207,999,23193,-.87142495E-4,-.21E-6,0
ONEWEB-0342,2021-083Y,2026-07-01T16:03:13.728096,13.20771919,.00020399,87.9195,271.5513,102.9346,257.2016,0,U,49208,999,23869,.24431196E-3,.112E-5,0
ONEWEB-0343,2021-083Z,2026-07-01T22:40:15.249216,13.18686933,.00019431,87.9179,332.5211,107.8450,252.2894,0,U,49209,999,23198,.424611E-4,.3E-6,0
ONEWEB-0344,2021-083AA,2026-07-01T21:33:32.993856,13.13468403,.00022289,87.8962,317.3103,97.9224,262.2158,0,U,49210,999,23282,.95217183E-3,.36E-5,0
ONEWEB-0345,2021-083AB,2026-07-01T21:21:21.895200,13.13469050,.00022168,87.8976,317.2957,98.6864,261.4516,0,U,49211,999,23283,.50273039E-3,.196E-5,0
ONEWEB-0346,2021-083AC,2026-07-01T22:35:23.813376,13.18686210,.00019107,87.9174,332.5215,76.0641,284.0704,0,U,49212,999,23192,-.89785459E-4,-.22E-6,0
ONEWEB-0348,2021-083AD,2026-07-01T06:43:14.221344,13.20771776,.00023715,87.9197,271.6329,89.1574,270.9831,0,U,49213,999,23867,.37862793E-3,.167E-5,0
ONEWEB-0350,2021-083AE,2026-07-01T21:48:10.156032,13.13469675,.00012298,87.8974,317.2968,128.4818,231.6422,0,U,49214,999,23286,.70173967E-3,.269E-5,0
ONEWEB-0351,2021-083AF,2026-07-01T06:33:18.422496,13.20770355,.00024381,87.9197,271.6331,113.4130,246.7260,0,U,49215,999,23863,-.82089767E-4,-.2E-6,0
ONEWEB-0352,2021-083AG,2026-07-01T21:06:43.754112,13.13470078,.00020126,87.8969,317.3078,110.8278,249.3067,0,U,49216,999,23295,-.59349566E-3,-.204E-5,0
ONEWEB-0354,2021-083AH,2026-06-30T07:34:06.099168,13.20762587,.00019217,87.9223,271.8231,98.5491,261.5860,0,U,49217,999,23854,-.89807772E-2,-.3637E-4,0
ONEWEB-0355,2021-083AJ,2026-07-01T21:48:23.107392,13.13469797,.00020645,87.8967,317.3025,102.3985,257.7375,0,U,49218,999,23283,.89639945E-3,.34E-5,0
ONEWEB-0357,2021-083AK,2026-07-01T16:12:53.952480,13.20773104,.00021379,87.9195,271.5458,104.9223,255.2147,0,U,49219,999,23872,.23716725E-3,.109E-5,0
ONEWEB-0332,2021-090A,2026-07-01T07:12:36.842688,13.14502672,.00018192,87.8974,286.8964,105.0934,255.0397,0,U,49279,999,22943,-.5393259E-4,-.7E-7,0
ONEWEB-0347,2021-090B,2026-07-01T06:52:55.810848,13.20772223,.00018384,87.9196,271.6311,104.9247,255.2090,0,U,49280,999,23290,.2477483E-3,.114E-5,0
ONEWEB-0349,2021-090C,2026-07-01T16:44:25.230336,13.20773225,.00020654,87.9196,271.5499,99.4669,260.6697,0,U,49281,999,23174,-.16947982E-3,-.56E-6,0
ONEWEB-0353,2021-090D,2026-07-01T17:58:51.140064,13.14502914,.00017365,87.8974,286.8029,104.7740,255.3583,0,U,49282,999,22949,.15384906E-3,.7E-6,0
ONEWEB-0356,2021-090E,2026-07-01T05:47:26.554848,13.20770544,.00015599,87.9194,271.6342,78.1814,281.9494,0,U,49283,999,23168,.10331477E-3,.55E-6,0
ONEWEB-0358,2021-090F,2026-07-01T15:44:52.000224,13.20777319,.00020371,87.9198,271.5588,94.4086,265.7280,0,U,49284,999,23246,.20379625E-3,.96E-6,0
ONEWEB-0359,2021-090G,2026-07-01T06:26:13.293024,13.20774650,.00022083,87.9196,271.6289,94.5869,265.5517,0,U,49285,999,23239,.25815789E-3,.118E-5,0
ONEWEB-0360,2021-090H,2026-07-01T22:33:31.361184,13.20770528,.0002135,87.9196,271.5009,99.8057,260.3317,0,U,49286,999,23179,.11267417E-3,.59E-6,0
ONEWEB-0361,2021-090J,2026-07-01T16:39:34.964352,13.20772209,.00020735,87.9192,271.5486,96.6642,263.4728,0,U,49287,999,23221,-.47659416E-4,-.6E-7,0
ONEWEB-0362,2021-090K,2026-07-01T21:15:23.788800,13.19725308,.00021605,87.9182,302.0503,105.3203,254.8168,0,U,49288,999,22885,-.31186826E-4,0,0
ONEWEB-0363,2021-090L,2026-07-01T22:28:40.462752,13.20771894,.00018845,87.9194,271.5002,90.6004,269.5345,0,U,49289,999,23225,.18159722E-4,.2E-6,0
ONEWEB-0364,2021-090M,2026-07-01T07:02:36.989088,13.20772299,.00020674,87.9193,271.6363,100.0926,260.0440,0,U,49290,999,23330,.11822165E-3,.61E-6,0
