ONEWEB-0336             
1 49202U 21083S   26182.88476617 -.00000039  00000+0 -14196-3 0  9994
2 49202  87.8966 317.3016 0001978  89.8868 270.2488 13.13470200232847
ONEWEB-0337             
1 49203U 21083T   26182.89478193  .00000138  00000+0  34284-3 0  9995
2 49203  87.8966 317.3052 0002050  96.0140 264.1223 13.13469688232840
ONEWEB-0338             
1 49204U 21083U   26182.20760785  .00000055  00000+0  10392-3 0  9994
2 49204  87.9189 271.6536 0001854 108.7892 251.3442 13.20770667238661
ONEWEB-0339             
1 49205U 21083V   26182.90337633  .00000349  00000+0  92083-3 0  9997
2 49205  87.8966 317.2962 0001957 107.8061 252.3282 13.13468547232824
ONEWEB-0340             
1 49206U 21083W   26182.92944502 -.00000020  00000+0 -83131-4 0  9992
2 49206  87.9186 332.5228 0001930  93.0086 267.1267 13.18686005231911
ONEWEB-0341             
1 49207U 21083X   26182.93618732 -.00000021  00000+0 -87142-4 0  9994
2 49207  87.9179 332.5239 0002354  95.8216 264.3185 13.18686691231933
ONEWEB-0342             
1 49208U 21083Y   26182.66890889  .00000112  00000+0  24431-3 0  9990
2 49208  87.9195 271.5513 0002039 102.9346 257.2016 13.20771919238698
ONEWEB-0343             
1 49209U 21083Z   26182.94462094  .00000030  00000+0  42461-4 0  9998
2 49209  87.9179 332.5211 0001943 107.8450 252.2894 13.18686933231989
ONEWEB-0344             
1 49210U 21083AA  26182.89829854  .00000360  00000+0  95217-3 0  9997
2 49210  87.8962 317.3103 0002228  97.9224 262.2158 13.13468403232829
ONEWEB-0345             
1 49211U 21083AB  26182.88983675  .00000196  00000+0  50273-3 0  9999
2 49211  87.8976 317.2957 0002216  98.6864 261.4516 13.13469050232835
ONEWEB-0346             
1 49212U 21083AC  26182.94124784 -.00000022  00000+0 -89785-4 0  9996
2 49212  87.9174 332.5215 0001910  76.0641 284.0704 13.18686210231920
ONEWEB-0348             
1 49213U 21083AD  26182.28002571  .00000167  00000+0  37863-3 0  9990
2 49213  87.9197 271.6329 0002371  89.1574 270.9831 13.20771776238676
ONEWEB-0350             
1 49214U 21083AE  26182.90845088  .00000269  00000+0  70174-3 0  9993
2 49214  87.8974 317.2968 0001229 128.4818 231.6422 13.13469675232863
ONEWEB-0351             
1 49215U 21083AF  26182.27312989 -.00000020  00000+0 -82090-4 0  9991
2 49215  87.9197 271.6331 0002438 113.4130 246.7260 13.20770355238639
ONEWEB-0352             
1 49216U 21083AG  26182.87967308 -.00000204  00000+0 -59350-3 0  9995
2 49216  87.8969 317.3078 0002012 110.8278 249.3067 13.13470078232958
ONEWEB-0354             
1 49217U 21083AH  26181.31534837 -.00003637  00000+0 -89808-2 0  9994
2 49217  87.9223 271.8231 0001921  98.5491 261.5860 13.20762587238540
ONEWEB-0355             
1 49218U 21083AJ  26182.90860078  .00000340  00000+0  89640-3 0  9991
2 49218  87.8967 317.3025 0002064 102.3985 257.7375 13.13469797232836
ONEWEB-0357             
1 49219U 21083AK  26182.67562445  .00000109  00000+0  23717-3 0  9999
2 49219  87.9195 271.5458 0002137 104.9223 255.2147 13.20773104238728
ONEWEB-0332             
1 49279U 21090A   26182.30042642 -.00000007  00000+0 -53933-4 0  9998
2 49279  87.8974 286.8964 0001819 105.0934 255.0397 13.14502672229432
ONEWEB-0347             
1 49280U 21090B   26182.28675707  .00000114  00000+0  24775-3 0  9999
2 49280  87.9196 271.6311 0001838 104.9247 255.2090 13.20772223232901
ONEWEB-0349             
1 49281U 21090C   26182.69751424 -.00000056  00000+0 -16948-3 0  9996
2 49281  87.9196 271.5499 0002065  99.4669 260.6697 13.20773225231744
ONEWEB-0353             
1 49282U 21090D   26182.74920301  .00000070  00000+0  15385-3 0  9993
2 49282  87.8974 286.8029 0001736 104.7740 255.3583 13.14502914229492
ONEWEB-0356             
1 49283U 21090E   26182.24127957  .00000055  00000+0  10331-3 0  9994
2 49283  87.9194 271.6342 0001559  78.1814 281.9494 13.20770544231680
ONEWEB-0358             
1 49284U 21090F   26182.65615741  .00000096  00000+0  20380-3 0  9993
2 49284  87.9198 271.5588 0002037  94.4086 265.7280 13.20777319232467
ONEWEB-0359             
1 49285U 21090G   26182.26820941  .00000118  00000+0  25816-3 0  9995
2 49285  87.9196 271.6289 0002208  94.5869 265.5517 13.20774650232393
ONEWEB-0360             
1 49286U 21090H   26182.93994631  .00000059  00000+0  11267-3 0  9997
2 49286  87.9196 271.5009 0002135  99.8057 260.3317 13.20770528231793
ONEWEB-0361             
1 49287U 21090J   26182.69415468 -.00000006  00000+0 -47659-4 0  9996
2 49287  87.9192 271.5486 0002073  96.6642 263.4728 13.20772209232211
ONEWEB-0362             
1 49288U 21090K   26182.88569200  .00000000  00000+0 -31187-4 0  9994
2 49288  87.9182 302.0503 0002160 105.3203 254.8168 13.19725308228852
ONEWEB-0363             
1 49289U 21090L   26182.93657943  .00000020  00000+0  18160-4 0  9990
2 49289  87.9194 271.5002 0001884  90.6004 269.5345 13.20771894232259
ONEWEB-0364             
1 49290U 21090M   26182.29348367  .00000061  00000+0  11822-3 0  9990
2 49290  87.9193 271.6363 0002067 100.0926 260.0440 13.20772299233303
